[
  {
    "name": "Австралия",
    "dial_code": "+61",
    "code": "AU"
  },
  {
    "name": "Австрия",
    "dial_code": "+43",
    "code": "AT"
  },
  {
    "name": "Азербайджан",
    "dial_code": "+994",
    "code": "AZ"
  },
  {
    "name": "Аландские острова",
    "dial_code": "+358",
    "code": "AX"
  },
  {
    "name": "Албания",
    "dial_code": "+355",
    "code": "AL"
  },
  {
    "name": "Алжир",
    "dial_code": "+213",
    "code": "DZ"
  },
  {
    "name": "Американское Самоа",
    "dial_code": "+1684",
    "code": "AS"
  },
  {
    "name": "Ангилья",
    "dial_code": "+1264",
    "code": "AI"
  },
  {
    "name": "Ангола",
    "dial_code": "+244",
    "code": "AO"
  },
  {
    "name": "Андорра",
    "dial_code": "+376",
    "code": "AD"
  },
  {
    "name": "Антарктида",
    "dial_code": "+672",
    "code": "AQ"
  },
  {
    "name": "Антигуа и Барбуда",
    "dial_code": "+1268",
    "code": "AG"
  },
  {
    "name": "Аргентина",
    "dial_code": "+54",
    "code": "AR"
  },
  {
    "name": "Армения",
    "dial_code": "+374",
    "code": "AM"
  },
  {
    "name": "Аруба",
    "dial_code": "+297",
    "code": "AW"
  },
  {
    "name": "Афганистан",
    "dial_code": "+93",
    "code": "AF"
  },
  {
    "name": "Багамские Острова",
    "dial_code": "+1242",
    "code": "BS"
  },
  {
    "name": "Бангладеш",
    "dial_code": "+880",
    "code": "BD"
  },
  {
    "name": "Барбадос",
    "dial_code": "+1246",
    "code": "BB"
  },
  {
    "name": "Бахрейн",
    "dial_code": "+973",
    "code": "BH"
  },
  {
    "name": "Белиз",
    "dial_code": "+501",
    "code": "BZ"
  },
  {
    "name": "Белоруссия",
    "dial_code": "+375",
    "code": "BY"
  },
  {
    "name": "Бельгия",
    "dial_code": "+32",
    "code": "BE"
  },
  {
    "name": "Бенин",
    "dial_code": "+229",
    "code": "BJ"
  },
  {
    "name": "Бермуды",
    "dial_code": "+1441",
    "code": "BM"
  },
  {
    "name": "Болгария",
    "dial_code": "+359",
    "code": "BG"
  },
  {
    "name": "Боливия",
    "dial_code": "+591",
    "code": "BO"
  },
  {
    "name": "Босния и Герцеговина",
    "dial_code": "+387",
    "code": "BA"
  },
  {
    "name": "Ботсвана",
    "dial_code": "+267",
    "code": "BW"
  },
  {
    "name": "Бразилия",
    "dial_code": "+55",
    "code": "BR"
  },
  {
    "name": "Бруней",
    "dial_code": "+673",
    "code": "BN"
  },
  {
    "name": "Буркина-Фасо",
    "dial_code": "+226",
    "code": "BF"
  },
  {
    "name": "Бурунди",
    "dial_code": "+257",
    "code": "BI"
  },
  {
    "name": "Бутан",
    "dial_code": "+975",
    "code": "BT"
  },
  {
    "name": "Вануату",
    "dial_code": "+678",
    "code": "VU"
  },
  {
    "name": "Ватикан",
    "dial_code": "+379",
    "code": "VA"
  },
  {
    "name": "Великобритания",
    "dial_code": "+44",
    "code": "GB"
  },
  {
    "name": "Венгрия",
    "dial_code": "+36",
    "code": "HU"
  },
  {
    "name": "Венесуэла",
    "dial_code": "+58",
    "code": "VE"
  },
  {
    "name": "Виргинские Острова (Великобритания)",
    "dial_code": "+1284",
    "code": "VG"
  },
  {
    "name": "Виргинские Острова (США)",
    "dial_code": "+1340",
    "code": "VI"
  },
  {
    "name": "Восточный Тимор",
    "dial_code": "+670",
    "code": "TL"
  },
  {
    "name": "Вьетнам",
    "dial_code": "+84",
    "code": "VN"
  },
  {
    "name": "Габон",
    "dial_code": "+241",
    "code": "GA"
  },
  {
    "name": "Гаити",
    "dial_code": "+509",
    "code": "HT"
  },
  {
    "name": "Гайана",
    "dial_code": "+595",
    "code": "GY"
  },
  {
    "name": "Гамбия",
    "dial_code": "+220",
    "code": "GM"
  },
  {
    "name": "Гана",
    "dial_code": "+233",
    "code": "GH"
  },
  {
    "name": "Гватемала",
    "dial_code": "+502",
    "code": "GT"
  },
  {
    "name": "Гвинея",
    "dial_code": "+224",
    "code": "GN"
  },
  {
    "name": "Гвинея-Бисау",
    "dial_code": "+245",
    "code": "GW"
  },
  {
    "name": "Германия",
    "dial_code": "+49",
    "code": "DE"
  },
  {
    "name": "Гернси",
    "dial_code": "+44",
    "code": "GG"
  },
  {
    "name": "Гибралтар",
    "dial_code": "+350",
    "code": "GI"
  },
  {
    "name": "Гондурас",
    "dial_code": "+504",
    "code": "HN"
  },
  {
    "name": "Гонконг",
    "dial_code": "+852",
    "code": "HK"
  },
  {
    "name": "Государство Палестина",
    "dial_code": "+970",
    "code": "PS"
  },
  {
    "name": "Гренада",
    "dial_code": "+1473",
    "code": "GD"
  },
  {
    "name": "Гренландия",
    "dial_code": "+299",
    "code": "GL"
  },
  {
    "name": "Греция",
    "dial_code": "+30",
    "code": "GR"
  },
  {
    "name": "Грузия",
    "dial_code": "+995",
    "code": "GE"
  },
  {
    "name": "Гуам",
    "dial_code": "+1671",
    "code": "GU"
  },
  {
    "name": "ДР Конго",
    "dial_code": "+243",
    "code": "CD"
  },
  {
    "name": "Дания",
    "dial_code": "+45",
    "code": "DK"
  },
  {
    "name": "Джерси",
    "dial_code": "+44",
    "code": "JE"
  },
  {
    "name": "Джибути",
    "dial_code": "+253",
    "code": "DJ"
  },
  {
    "name": "Доминика",
    "dial_code": "+1767",
    "code": "DM"
  },
  {
    "name": "Доминиканская Республика",
    "dial_code": "+1849",
    "code": "DO"
  },
  {
    "name": "Египет",
    "dial_code": "+20",
    "code": "EG"
  },
  {
    "name": "Замбия",
    "dial_code": "+260",
    "code": "ZM"
  },
  {
    "name": "Зимбабве",
    "dial_code": "+263",
    "code": "ZW"
  },
  {
    "name": "Израиль",
    "dial_code": "+972",
    "code": "IL"
  },
  {
    "name": "Индия Индия",
    "dial_code": "+91",
    "code": "IN"
  },
  {
    "name": "Индонезия",
    "dial_code": "+62",
    "code": "ID"
  },
  {
    "name": "Иордания",
    "dial_code": "+962",
    "code": "JO"
  },
  {
    "name": "Ирак",
    "dial_code": "+964",
    "code": "IQ"
  },
  {
    "name": "Иран",
    "dial_code": "+98",
    "code": "IR"
  },
  {
    "name": "Ирландия",
    "dial_code": "+353",
    "code": "IE"
  },
  {
    "name": "Исландия",
    "dial_code": "+354",
    "code": "IS"
  },
  {
    "name": "Испания",
    "dial_code": "+34",
    "code": "ES"
  },
  {
    "name": "Италия",
    "dial_code": "+39",
    "code": "IT"
  },
  {
    "name": "Йемен",
    "dial_code": "+967",
    "code": "YE"
  },
  {
    "name": "КНДР",
    "dial_code": "+850",
    "code": "KP"
  },
  {
    "name": "Кабо-Верде",
    "dial_code": "+238",
    "code": "CV"
  },
  {
    "name": "Казахстан",
    "dial_code": "+77",
    "code": "KZ"
  },
  {
    "name": "Камбоджа",
    "dial_code": "+855",
    "code": "KH"
  },
  {
    "name": "Камерун",
    "dial_code": "+237",
    "code": "CM"
  },
  {
    "name": "Катар",
    "dial_code": "+974",
    "code": "QA"
  },
  {
    "name": "Кения",
    "dial_code": "+254",
    "code": "KE"
  },
  {
    "name": "Кипр",
    "dial_code": "+357",
    "code": "CY"
  },
  {
    "name": "Киргизия",
    "dial_code": "+996",
    "code": "KG"
  },
  {
    "name": "Кирибати",
    "dial_code": "+686",
    "code": "KI"
  },
  {
    "name": "Китай",
    "dial_code": "+86",
    "code": "CN"
  },
  {
    "name": "Китайская Республика",
    "dial_code": "+886",
    "code": "TW"
  },
  {
    "name": "Кокосовые острова",
    "dial_code": "+61",
    "code": "CC"
  },
  {
    "name": "Колумбия",
    "dial_code": "+57",
    "code": "CO"
  },
  {
    "name": "Коморы",
    "dial_code": "+269",
    "code": "KM"
  },
  {
    "name": "Коста-Рика",
    "dial_code": "+506",
    "code": "CR"
  },
  {
    "name": "Кот-д’Ивуар",
    "dial_code": "+225",
    "code": "CI"
  },
  {
    "name": "Куба",
    "dial_code": "+53",
    "code": "CU"
  },
  {
    "name": "Кувейт",
    "dial_code": "+965",
    "code": "KW"
  },
  {
    "name": "Лаос",
    "dial_code": "+856",
    "code": "LA"
  },
  {
    "name": "Латвия",
    "dial_code": "+371",
    "code": "LV"
  },
  {
    "name": "Лесото",
    "dial_code": "+266",
    "code": "LS"
  },
  {
    "name": "Либерия",
    "dial_code": "+231",
    "code": "LR"
  },
  {
    "name": "Ливан",
    "dial_code": "+961",
    "code": "LB"
  },
  {
    "name": "Ливия",
    "dial_code": "+218",
    "code": "LY"
  },
  {
    "name": "Литва",
    "dial_code": "+370",
    "code": "LT"
  },
  {
    "name": "Лихтенштейн",
    "dial_code": "+423",
    "code": "LI"
  },
  {
    "name": "Люксембург",
    "dial_code": "+352",
    "code": "LU"
  },
  {
    "name": "Маврикий",
    "dial_code": "+230",
    "code": "MU"
  },
  {
    "name": "Мавритания",
    "dial_code": "+222",
    "code": "MR"
  },
  {
    "name": "Мадагаскар",
    "dial_code": "+261",
    "code": "MG"
  },
  {
    "name": "Майотта",
    "dial_code": "+262",
    "code": "YT"
  },
  {
    "name": "Макао",
    "dial_code": "+853",
    "code": "MO"
  },
  {
    "name": "Малави",
    "dial_code": "+265",
    "code": "MW"
  },
  {
    "name": "Малайзия",
    "dial_code": "+60",
    "code": "MY"
  },
  {
    "name": "Мали",
    "dial_code": "+223",
    "code": "ML"
  },
  {
    "name": "Мальдивы",
    "dial_code": "+960",
    "code": "MV"
  },
  {
    "name": "Мальта",
    "dial_code": "+356",
    "code": "MT"
  },
  {
    "name": "Марокко",
    "dial_code": "+212",
    "code": "MA"
  },
  {
    "name": "Мартиника",
    "dial_code": "+596",
    "code": "MQ"
  },
  {
    "name": "Маршалловы Острова",
    "dial_code": "+692",
    "code": "MH"
  },
  {
    "name": "Мексика",
    "dial_code": "+52",
    "code": "MX"
  },
  {
    "name": "Микронезия",
    "dial_code": "+691",
    "code": "FM"
  },
  {
    "name": "Мозамбик",
    "dial_code": "+258",
    "code": "MZ"
  },
  {
    "name": "Молдавия",
    "dial_code": "+373",
    "code": "MD"
  },
  {
    "name": "Монако",
    "dial_code": "+377",
    "code": "MC"
  },
  {
    "name": "Монголия",
    "dial_code": "+976",
    "code": "MN"
  },
  {
    "name": "Монтсеррат",
    "dial_code": "+1664",
    "code": "MS"
  },
  {
    "name": "Мьянма",
    "dial_code": "+95",
    "code": "MM"
  },
  {
    "name": "Намибия",
    "dial_code": "+264",
    "code": "NA"
  },
  {
    "name": "Науру",
    "dial_code": "+674",
    "code": "NR"
  },
  {
    "name": "Непал",
    "dial_code": "+977",
    "code": "NP"
  },
  {
    "name": "Нигер",
    "dial_code": "+227",
    "code": "NE"
  },
  {
    "name": "Нигерия",
    "dial_code": "+234",
    "code": "NG"
  },
  {
    "name": "Нидерланды",
    "dial_code": "+31",
    "code": "NL"
  },
  {
    "name": "Никарагуа",
    "dial_code": "+505",
    "code": "NI"
  },
  {
    "name": "Ниуэ",
    "dial_code": "+683",
    "code": "NU"
  },
  {
    "name": "Новая Зеландия",
    "dial_code": "+64",
    "code": "NZ"
  },
  {
    "name": "Новая Каледония",
    "dial_code": "+687",
    "code": "NC"
  },
  {
    "name": "Норвегия",
    "dial_code": "+47",
    "code": "NO"
  },
  {
    "name": "ОАЭ",
    "dial_code": "+971",
    "code": "AE"
  },
  {
    "name": "Оман",
    "dial_code": "+968",
    "code": "OM"
  },
  {
    "name": "Остров Мэн",
    "dial_code": "+44",
    "code": "IM"
  },
  {
    "name": "Остров Норфолк",
    "dial_code": "+672",
    "code": "NF"
  },
  {
    "name": "Остров Рождества",
    "dial_code": "+61",
    "code": "CX"
  },
  {
    "name": "Острова Кайман",
    "dial_code": "+ 345",
    "code": "KY"
  },
  {
    "name": "Острова Кука",
    "dial_code": "+682",
    "code": "CK"
  },
  {
    "name": "Острова Питкэрн",
    "dial_code": "+872",
    "code": "PN"
  },
  {
    "name": "Пакистан",
    "dial_code": "+92",
    "code": "PK"
  },
  {
    "name": "Палау",
    "dial_code": "+680",
    "code": "PW"
  },
  {
    "name": "Панама",
    "dial_code": "+507",
    "code": "PA"
  },
  {
    "name": "Папуа — Новая Гвинея",
    "dial_code": "+675",
    "code": "PG"
  },
  {
    "name": "Парагвай",
    "dial_code": "+595",
    "code": "PY"
  },
  {
    "name": "Перу",
    "dial_code": "+51",
    "code": "PE"
  },
  {
    "name": "Польша",
    "dial_code": "+48",
    "code": "PL"
  },
  {
    "name": "Португалия",
    "dial_code": "+351",
    "code": "PT"
  },
  {
    "name": "Пуэрто-Рико",
    "dial_code": "+1939",
    "code": "PR"
  },
  {
    "name": "Республика Конго",
    "dial_code": "+242",
    "code": "CG"
  },
  {
    "name": "Республика Корея",
    "dial_code": "+82",
    "code": "KR"
  },
  {
    "name": "Реюньон",
    "dial_code": "+262",
    "code": "RE"
  },
  {
    "name": "Россия",
    "dial_code": "+7",
    "code": "RU"
  },
  {
    "name": "Руанда",
    "dial_code": "+250",
    "code": "RW"
  },
  {
    "name": "Румыния",
    "dial_code": "+40",
    "code": "RO"
  },
  {
    "name": "США и Канада",
    "dial_code": "+1",
    "code": "US"
  },
  {
    "name": "Сальвадор",
    "dial_code": "+503",
    "code": "SV"
  },
  {
    "name": "Самоа",
    "dial_code": "+685",
    "code": "WS"
  },
  {
    "name": "Сан-Марино",
    "dial_code": "+378",
    "code": "SM"
  },
  {
    "name": "Сан-Томе и Принсипи",
    "dial_code": "+239",
    "code": "ST"
  },
  {
    "name": "Саудовская Аравия",
    "dial_code": "+966",
    "code": "SA"
  },
  {
    "name": "Северная Македония",
    "dial_code": "+389",
    "code": "MK"
  },
  {
    "name": "Северные Марианские Острова",
    "dial_code": "+1670",
    "code": "MP"
  },
  {
    "name": "Сейшельские Острова",
    "dial_code": "+248",
    "code": "SC"
  },
  {
    "name": "Сен-Мартен",
    "dial_code": "+590",
    "code": "MF"
  },
  {
    "name": "Сенегал",
    "dial_code": "+221",
    "code": "SN"
  },
  {
    "name": "Сент-Винсент и Гренадины",
    "dial_code": "+1784",
    "code": "VC"
  },
  {
    "name": "Сент-Китс и Невис",
    "dial_code": "+1869",
    "code": "KN"
  },
  {
    "name": "Сент-Люсия",
    "dial_code": "+1758",
    "code": "LC"
  },
  {
    "name": "Сербия",
    "dial_code": "+381",
    "code": "RS"
  },
  {
    "name": "Сингапур",
    "dial_code": "+65",
    "code": "SG"
  },
  {
    "name": "Сирия",
    "dial_code": "+963",
    "code": "SY"
  },
  {
    "name": "Словакия",
    "dial_code": "+421",
    "code": "SK"
  },
  {
    "name": "Словения",
    "dial_code": "+386",
    "code": "SI"
  },
  {
    "name": "Соломоновы Острова",
    "dial_code": "+677",
    "code": "SB"
  },
  {
    "name": "Сомали",
    "dial_code": "+252",
    "code": "SO"
  },
  {
    "name": "Судан",
    "dial_code": "+249",
    "code": "SD"
  },
  {
    "name": "Суринам",
    "dial_code": "+597",
    "code": "SR"
  },
  {
    "name": "Сьерра-Леоне",
    "dial_code": "+232",
    "code": "SL"
  },
  {
    "name": "Таджикистан",
    "dial_code": "+992",
    "code": "TJ"
  },
  {
    "name": "Таиланд",
    "dial_code": "+66",
    "code": "TH"
  },
  {
    "name": "Танзания",
    "dial_code": "+255",
    "code": "TZ"
  },
  {
    "name": "Теркс и Кайкос",
    "dial_code": "+1649",
    "code": "TC"
  },
  {
    "name": "Того",
    "dial_code": "+228",
    "code": "TG"
  },
  {
    "name": "Токелау",
    "dial_code": "+690",
    "code": "TK"
  },
  {
    "name": "Тонга",
    "dial_code": "+676",
    "code": "TO"
  },
  {
    "name": "Тринидад и Тобаго",
    "dial_code": "+1868",
    "code": "TT"
  },
  {
    "name": "Тувалу",
    "dial_code": "+688",
    "code": "TV"
  },
  {
    "name": "Тунис",
    "dial_code": "+216",
    "code": "TN"
  },
  {
    "name": "Туркмения",
    "dial_code": "+993",
    "code": "TM"
  },
  {
    "name": "Турция",
    "dial_code": "+90",
    "code": "TR"
  },
  {
    "name": "Уганда",
    "dial_code": "+256",
    "code": "UG"
  },
  {
    "name": "Узбекистан",
    "dial_code": "+998",
    "code": "UZ"
  },
  {
    "name": "Украина",
    "dial_code": "+380",
    "code": "UA"
  },
  {
    "name": "Уоллис и Футуна",
    "dial_code": "+681",
    "code": "WF"
  },
  {
    "name": "Уругвай",
    "dial_code": "+598",
    "code": "UY"
  },
  {
    "name": "Фареры",
    "dial_code": "+298",
    "code": "FO"
  },
  {
    "name": "Фиджи",
    "dial_code": "+679",
    "code": "FJ"
  },
  {
    "name": "Филиппины",
    "dial_code": "+63",
    "code": "PH"
  },
  {
    "name": "Финляндия",
    "dial_code": "+358",
    "code": "FI"
  },
  {
    "name": "Фолклендские острова",
    "dial_code": "+500",
    "code": "FK"
  },
  {
    "name": "Франция",
    "dial_code": "+33",
    "code": "FR"
  },
  {
    "name": "Французская Полинезия",
    "dial_code": "+689",
    "code": "PF"
  },
  {
    "name": "Хорватия",
    "dial_code": "+385",
    "code": "HR"
  },
  {
    "name": "ЦАР",
    "dial_code": "+236",
    "code": "CF"
  },
  {
    "name": "Чад",
    "dial_code": "+235",
    "code": "TD"
  },
  {
    "name": "Черногория",
    "dial_code": "+382",
    "code": "ME"
  },
  {
    "name": "Чехия",
    "dial_code": "+420",
    "code": "CZ"
  },
  {
    "name": "Чили",
    "dial_code": "+56",
    "code": "CL"
  },
  {
    "name": "Швейцария",
    "dial_code": "+41",
    "code": "CH"
  },
  {
    "name": "Швеция",
    "dial_code": "+46",
    "code": "SE"
  },
  {
    "name": "Шри-Ланка",
    "dial_code": "+94",
    "code": "LK"
  },
  {
    "name": "Эквадор",
    "dial_code": "+593",
    "code": "EC"
  },
  {
    "name": "Экваториальная Гвинея",
    "dial_code": "+240",
    "code": "GQ"
  },
  {
    "name": "Эритрея",
    "dial_code": "+291",
    "code": "ER"
  },
  {
    "name": "Эсватини",
    "dial_code": "+268",
    "code": "SZ"
  },
  {
    "name": "Эстония",
    "dial_code": "+372",
    "code": "EE"
  },
  {
    "name": "Эфиопия",
    "dial_code": "+251",
    "code": "ET"
  },
  {
    "name": "ЮАР",
    "dial_code": "+27",
    "code": "ZA"
  },
  {
    "name": "Южный Судан",
    "dial_code": "+211",
    "code": "SS"
  },
  {
    "name": "Ямайка",
    "dial_code": "+1876",
    "code": "JM"
  },
  {
    "name": "Япония",
    "dial_code": "+81",
    "code": "JP"
  }
]
